SHIYAN-24C 03           
1 58652U 23206C   26068.89147317  .00001350  00000+0  11928-3 0  9993
2 58652  97.3969  41.7507 0002411  66.6237 293.5240 14.97896938120432
STARLINK-33968          
1 63883U 25094V   26068.85530523  .00003779  00000+0  32433-3 0  9994
2 63883  70.0024 234.2086 0003008 268.4679  91.6135 14.98334370 47223
